{
  "norad_id": 66537,
  "name": "STARLINK-35582",
  "history": [
    {
      "epoch": "2026-03-28T14:08:58.167168Z",
      "apogee_km": 483.8614799138177,
      "perigee_km": 482.05701160118406,
      "latitude_deg": -3.998990955375866e-05,
      "longitude_deg": 132.9673594051031,
      "height_km": 482.8198808982469,
      "semi_major_axis_km": 6861.096245757501,
      "eccentricity": 0.0001315,
      "inclination_deg": 42.9995,
      "raan_deg": 171.2176,
      "arg_perigee_deg": 264.6531,
      "mean_anomaly_deg": 95.417,
      "mean_motion_rev_day": 15.27610007
    },
    {
      "epoch": "2026-03-28T21:59:45.155904Z",
      "apogee_km": 483.3904663608391,
      "perigee_km": 482.584970318906,
      "latitude_deg": 1.585817061298897e-05,
      "longitude_deg": 13.10399282372138,
      "height_km": 482.8899983493542,
      "semi_major_axis_km": 6861.124718339872,
      "eccentricity": 5.87e-05,
      "inclination_deg": 43.001,
      "raan_deg": 169.3722,
      "arg_perigee_deg": 251.7337,
      "mean_anomaly_deg": 108.3451,
      "mean_motion_rev_day": 15.27600498
    }
  ]
}